     2.100          NAVIGATION                              RINEX VERSION / TYPE
fic2rin                                 08/14/2013 00:31:53 PGM / RUN BY / DATE
                                                            END OF HEADER
 6 13  8 13 20  0  0.0  .957166776061D-04  .201225702767D-10  .000000000000D+00
     .360000000000D+02 -.312500000000D+01  .523950396066D-08 -.221600951968D+01
    -.197440385818D-06  .809915945865D-02  .702217221260D-05  .515367686653D+04
     .244800000000D+06 -.178813934326D-06  .232702173565D+01 -.521540641785D-07
     .941892934010D+00  .237906250000D+03 -.249791218338D+00 -.838070623291D-08
     .391802034413D-09  .100000000000D+01  .175300000000D+04  .000000000000D+00
     .136500000000D+02  .630000000000D+02 -.512227416039D-08  .360000000000D+02
     .238176000000D+06  .400000000000D+01
 6 13  8 13 19 59 44.0  .203959643841D-06  .201225702767D-10  .000000000000D+00
     .510000000000D+02 -.312500000000D+01  .523950396066D-08 -.221834326169D+01
    -.197440385818D-06  .809915945865D-02  .702217221260D-05  .515367686653D+04
     .244784000000D+06 -.178813934326D-06  .232702187024D+01 -.521540641785D-07
     .941892928158D+00  .237906250000D+03 -.249791218338D+00 -.838070623291D-08
     .391802034413D-09  .100000000000D+01  .175300000000D+04  .000000000000D+00
     .136500000000D+02  .630000000000D+02 -.512227416039D-08  .510000000000D+02
     .239406000000D+06  .400000000000D+01
 6 13  8 13 19 59 44.0  .203959643841D-06  .201225702767D-10  .000000000000D+00
     .510000000000D+02 -.312500000000D+01  .523950396066D-08 -.221834326169D+01
    -.197440385818D-06  .809915945865D-02  .702217221260D-05  .515367686653D+04
     .244784000000D+06 -.178813934326D-06  .232702187024D+01 -.521540641785D-07
     .941892928158D+00  .237906250000D+03 -.249791218338D+00 -.838070623291D-08
     .391802034413D-09  .100000000000D+01  .175300000000D+04  .000000000000D+00
     .136500000000D+02  .630000000000D+02 -.512227416039D-08  .510000000000D+02
     .239496000000D+06  .400000000000D+01
 6 13  8 13 19 59 28.0  .200234353542D-06  .200088834390D-10  .000000000000D+00
     .460000000000D+02 -.312500000000D+01  .523950396066D-08 -.222067704320D+01
    -.197440385818D-06  .809915934224D-02  .702217221260D-05  .515367686462D+04
     .244768000000D+06 -.178813934326D-06  .232702200775D+01 -.521540641785D-07
     .941892922307D+00  .237906250000D+03 -.249791174451D+00 -.838070623291D-08
     .391802034413D-09  .100000000000D+01  .175300000000D+04  .000000000000D+00
     .240000000000D+01  .000000000000D+00 -.512227416039D-08  .460000000000D+02
     .240486000000D+06  .400000000000D+01
14 13  8 13 19 59 44.0  .217963010073D-03 -.682121026330D-12  .000000000000D+00
     .400000000000D+01  .592187500000D+02  .418374569837D-08 -.302787473114D+01
     .315345823765D-05  .726368720643D-02  .480003654957D-05  .515378080940D+04
     .244784000000D+06  .502914190292D-07 -.677829402041D+00 -.149011611938D-07
     .973303628449D+00  .292500000000D+03 -.202697589317D+01 -.793747348477D-08
     .610739725475D-10  .100000000000D+01  .175300000000D+04  .000000000000D+00
     .240000000000D+01  .000000000000D+00 -.884756445885D-08  .400000000000D+01
     .240936000000D+06  .400000000000D+01
 1 13  8 13 19 59 44.0  .626333057880D-04  .466116034659D-11  .000000000000D+00
     .160000000000D+02 -.274687500000D+02  .484377319117D-08  .130230449499D+01
    -.126287341118D-05  .221542431973D-02  .807829201221D-05  .515368924332D+04
     .244784000000D+06  .894069671631D-07 -.284233096446D+01  .670552253723D-07
     .960672123736D+00  .221500000000D+03  .323338668445D+00 -.816676875013D-08
    -.324299222650D-09  .100000000000D+01  .175300000000D+04  .000000000000D+00
     .240000000000D+01  .000000000000D+00  .838190317154D-08  .160000000000D+02
     .241176000000D+06  .400000000000D+01
 6 13  8 13 21 59 28.0  .344123691320D-06  .200088834390D-10  .000000000000D+00
     .480000000000D+02 -.590625000000D+01  .523128933277D-08 -.117055570637D+01
    -.538304448128D-06  .809924548957D-02  .672414898872D-05  .515367588997D+04
     .251968000000D+06 -.409781932831D-07  .232696084607D+01 -.117346644402D-06
     .941895949084D+00  .240406250000D+03 -.249727745249D+00 -.845106630655D-08
     .462162108050D-09  .100000000000D+01  .175300000000D+04  .000000000000D+00
     .240000000000D+01  .000000000000D+00 -.512227416039D-08  .480000000000D+02
     .244806000000D+06  .400000000000D+01
 1 13  8 13 21 59 44.0  .626668334007D-04  .466116034659D-11  .000000000000D+00
     .170000000000D+02 -.292187500000D+02  .481377194149D-08  .235234374748D+01
    -.149384140968D-05  .221537298057D-02  .822730362415D-05  .515368981552D+04
     .251984000000D+06 -.113621354103D-06 -.284239021996D+01  .391155481339D-07
     .960670631559D+00  .220312500000D+03  .323473341757D+00 -.805997858760D-08
    -.187150652719D-09  .100000000000D+01  .175300000000D+04  .000000000000D+00
     .240000000000D+01  .000000000000D+00  .838190317154D-08  .170000000000D+02
     .244806000000D+06  .400000000000D+01
14 13  8 13 21 59 44.0  .217958819121D-03 -.682121026330D-12  .000000000000D+00
     .280000000000D+02  .594062500000D+02  .422696178421D-08 -.197772845301D+01
     .312179327011D-05  .726315693464D-02  .520236790180D-05  .515378187561D+04
     .251984000000D+06  .128522515297D-06 -.677886272981D+00 -.540167093277D-07
     .973303853738D+00  .288031250000D+03 -.202700967195D+01 -.796426031484D-08
     .357157734196D-12  .100000000000D+01  .175300000000D+04  .000000000000D+00
     .240000000000D+01  .000000000000D+00 -.884756445885D-08  .280000000000D+02
     .244806000000D+06  .400000000000D+01
 2 13  8 13 22  0  0.0  .446403864771D-03  .181898940355D-11  .000000000000D+00
     .350000000000D+02 -.361875000000D+02  .525521890096D-08  .313831486860D+01
    -.194087624550D-05  .125101469457D-01  .761449337006D-05  .515370264053D+04
     .252000000000D+06 -.100582838058D-06 -.286574280612D+01 -.182539224625D-06
     .939184646936D+00  .218531250000D+03 -.256895428680D+01 -.815748264904D-08
    -.254653464482D-09  .100000000000D+01  .175300000000D+04  .000000000000D+00
     .240000000000D+01  .000000000000D+00 -.172294676304D-07  .350000000000D+02
     .244806000000D+06  .400000000000D+01
 3 13  8 13 22  0  0.0  .245631672442D-03  .500222085975D-11  .000000000000D+00
     .380000000000D+02 -.318750000000D+01  .525486174323D-08 -.298231592335D+01
    -.419095158577D-06  .166245057480D-01  .669434666634D-05  .515371420097D+04
     .252000000000D+06  .251457095146D-06  .224689422339D+01 -.856816768646D-07
     .935267786183D+00  .233812500000D+03  .131908137411D+01 -.819105547605D-08
     .425732019162D-09  .100000000000D+01  .175300000000D+04  .000000000000D+00
     .240000000000D+01  .000000000000D+00 -.465661287308D-08  .380000000000D+02
     .244806000000D+06  .400000000000D+01
 4 13  8 13 22  0  0.0  .299139413983D-03  .102318153949D-10  .000000000000D+00
     .790000000000D+02 -.276875000000D+02  .543058334845D-08  .974205161955D-01
    -.124610960484D-05  .104522260372D-01  .754743814468D-05  .515358137894D+04
     .252000000000D+06 -.502914190292D-07 -.284938653058D+01  .113621354103D-06
     .938214062233D+00  .221281250000D+03  .100263383540D+01 -.858821487648D-08
    -.288940606965D-09  .100000000000D+01  .175300000000D+04  .000000000000D+00
     .240000000000D+01  .000000000000D+00 -.605359673500D-08  .790000000000D+02
     .244806000000D+06  .400000000000D+01
 5 13  8 13 22  0  0.0 -.399479176849D-03 -.227373675443D-12  .000000000000D+00
     .250000000000D+02  .446875000000D+02  .470698177897D-08 -.864293288599D+00
     .228360295296D-05  .316728942562D-02  .108461827040D-04  .515368147278D+04
     .252000000000D+06  .651925802231D-07 -.180007882929D+01 -.540167093277D-07
     .948081669967D+00  .164593750000D+03  .246420426868D+00 -.806462163815D-08
    -.260367988229D-09  .100000000000D+01  .175300000000D+04  .000000000000D+00
     .240000000000D+01  .000000000000D+00 -.977888703346D-08  .250000000000D+02
     .244806000000D+06  .400000000000D+01
 7 13  8 13 22  0  0.0  .247026327997D-03  .420641299570D-11  .000000000000D+00
     .770000000000D+02 -.402500000000D+02  .420446084696D-08  .175594065832D+01
    -.201165676117D-05  .679797632620D-02  .558421015739D-05  .515367693710D+04
     .252000000000D+06 -.875443220139D-07  .318064186067D+00  .115483999252D-06
     .975363365902D+00  .280343750000D+03 -.290661428687D+01 -.814105339327D-08
    -.276440086268D-09  .100000000000D+01  .175300000000D+04  .000000000000D+00
     .240000000000D+01  .000000000000D+00 -.107102096081D-07  .770000000000D+02
     .244806000000D+06  .400000000000D+01
 8 13  8 13 22  0  0.0  .793533399701D-05  .227373675443D-12  .000000000000D+00
     .300000000000D+01 -.420312500000D+02  .366479551059D-08  .118568296249D+01
    -.201351940632D-05  .133056243649D-01  .601075589657D-05  .515370409584D+04
     .252000000000D+06 -.130385160446D-06  .411019225286D+00  .221654772758D-06
     .998192481946D+00  .284375000000D+03 -.285396588110D+01 -.787711382769D-08
    -.362157942475D-09  .100000000000D+01  .175300000000D+04  .000000000000D+00
     .240000000000D+01  .000000000000D+00 -.372529029846D-08  .300000000000D+01
     .244806000000D+06  .400000000000D+01
 9 13  8 13 22  0  0.0  .261103268713D-03  .261479726760D-11  .000000000000D+00
     .270000000000D+02 -.398125000000D+02  .394480717420D-08  .293226379194D+01
    -.193342566490D-05  .169861270115D-01  .494904816151D-05  .515372733688D+04
     .252000000000D+06  .199303030968D-06  .295398140038D+00  .558793544769D-07
     .983977425467D+00  .293562500000D+03  .171357343454D+01 -.775425156713D-08
    -.245367363393D-09  .100000000000D+01  .175300000000D+04  .000000000000D+00
     .340000000000D+01  .000000000000D+00 -.558793544769D-08  .270000000000D+02
     .244806000000D+06  .400000000000D+01
